NORAD_CAT_ID,OBJECT_NAME,OBJECT_TYPE,EPOCH,MEAN_MOTION,ECCENTRICITY,INCLINATION,RA_OF_ASC_NODE,ARG_OF_PERICENTER,MEAN_ANOMALY,BSTAR,MEAN_MOTION_DOT,MEAN_MOTION_DDOT,TLE_LINE0,TLE_LINE1,TLE_LINE2,SEMIMAJOR_AXIS,PERIOD,APOGEE,PERIGEE,DECAYED
51776.0,STARLINK-3608,PAYLOAD,2023-01-30 23:00:42,15.08841048,0.0001586,53.217,28.6435,104.202,255.9149,-9.9764e-05,-1.875e-05,0.0,0 STARLINK-3608,1 51776U 22017J   23030.95882656 -.00001875  00000-0 -99764-4 0  9997,2 51776  53.2170  28.6435 0001586 104.2020 255.9149 15.08841048 51418,6917.877,95.437,540.839,538.645,0.0
51776.0,STARLINK-3608,PAYLOAD,2023-01-31 08:33:01,15.08841048,0.0001243,53.2165,26.8589,94.4472,265.6662,-5.6314e-06,-3.77e-06,0.0,0 STARLINK-3608,1 51776U 22017J   23031.35626289 -.00000377  00000-0 -56314-5 0  9991,2 51776  53.2165  26.8589 0001243  94.4472 265.6662 15.08841048 51477,6917.877,95.437,540.602,538.882,0.0
51776.0,STARLINK-3608,PAYLOAD,2023-02-01 05:13:01,15.0884196,0.00012,53.2164,22.993,94.6064,265.5065,3.6888e-05,2.99e-06,0.0,0 STARLINK-3608,1 51776U 22017J   23032.21738131  .00000299  00000-0  36888-4 0  9991,2 51776  53.2164  22.9930 0001200  94.6064 265.5065 15.08841960 53094,6917.874,95.437,540.57,538.909,0.0
51776.0,STARLINK-3608,PAYLOAD,2023-02-01 06:48:24,15.08843332,0.000122,53.2165,22.6958,92.9672,267.146,5.0398e-05,5.14e-06,0.0,0 STARLINK-3608,1 51776U 22017J   23032.28361992  .00000514  00000-0  50398-4 0  9997,2 51776  53.2165  22.6958 0001220  92.9672 267.1460 15.08843332 51618,6917.87,95.437,540.579,538.891,0.0
51776.0,STARLINK-3608,PAYLOAD,2023-02-02 03:28:26,15.08830004,0.0001434,53.2182,18.8309,91.5349,268.5807,-5.1624e-06,-3.7e-06,0.0,0 STARLINK-3608,1 51776U 22017J   23033.14475291 -.00000370  00000-0 -51624-5 0  9997,2 51776  53.2182  18.8309 0001434  91.5349 268.5807 15.08830004 53239,6917.911,95.438,540.768,538.784,0.0
51776.0,STARLINK-3608,PAYLOAD,2023-02-02 08:14:35,15.08838427,0.0001239,53.2169,17.9378,81.8263,278.287,-8.2298e-06,-4.19e-06,0.0,0 STARLINK-3608,1 51776U 22017J   23033.34346826 -.00000419  00000-0 -82298-5 0  9995,2 51776  53.2169  17.9378 0001239  81.8263 278.2870 15.08838427 51772,6917.885,95.438,540.607,538.893,0.0
51776.0,STARLINK-3608,PAYLOAD,2023-02-03 04:54:35,15.0884665,0.0001283,53.2168,14.0713,82.3724,277.7413,1.6975e-05,-1.8e-07,0.0,0 STARLINK-3608,1 51776U 22017J   23034.20458121 -.00000018  00000-0  16975-4 0  9995,2 51776  53.2168  14.0713 0001283  82.3724 277.7413 15.08846650 53393,6917.86,95.437,540.613,538.838,0.0
51776.0,STARLINK-3608,PAYLOAD,2023-02-03 08:05:21,15.08849215,0.0001287,53.2165,13.4764,82.0401,278.0737,4.5292e-05,4.33e-06,0.0,0 STARLINK-3608,1 51776U 22017J   23034.33705798  .00000433  00000-0  45292-4 0  9998,2 51776  53.2165  13.4764 0001287  82.0401 278.0737 15.08849215 51922,6917.852,95.437,540.608,538.827,0.0
51776.0,STARLINK-3608,PAYLOAD,2023-02-04 07:56:08,15.08844992,0.0001325,53.217,9.0148,89.1321,270.9823,4.3389e-05,4.03e-06,0.0,0 STARLINK-3608,1 51776U 22017J   23035.33065933  .00000403  00000-0  43389-4 0  9991,2 51776  53.2170   9.0148 0001325  89.1321 270.9823 15.08844992 53563,6917.865,95.437,540.647,538.814,0.0
51776.0,STARLINK-3608,PAYLOAD,2023-02-04 22:14:38,15.08840392,0.0001283,53.2175,6.3406,79.4738,280.6399,-0.00014874,-2.654e-05,0.0,0 STARLINK-3608,1 51776U 22017J   23035.92683052 -.00002654  00000-0 -14874-3 0  9992,2 51776  53.2175   6.3406 0001283  79.4738 280.6399 15.08840392 53658,6917.879,95.438,540.632,538.857,0.0
51776.0,STARLINK-3608,PAYLOAD,2023-02-05 07:46:56,15.08843654,0.0001278,53.2174,4.5555,90.1807,269.9331,-8.7287e-05,-1.677e-05,0.0,0 STARLINK-3608,1 51776U 22017J   23036.32426504 -.00001677  00000-0 -87287-4 0  9997,2 51776  53.2174   4.5555 0001278  90.1807 269.9331 15.08843654 52225,6917.869,95.437,540.618,538.85,0.0
51776.0,STARLINK-3608,PAYLOAD,2023-02-06 07:37:43,15.0884677,0.0001121,53.2167,0.0953,88.815,271.297,3.168e-05,2.16e-06,0.0,0 STARLINK-3608,1 51776U 22017J   23037.31785997  .00000216  00000-0  31680-4 0  9993,2 51776  53.2167   0.0953 0001121  88.8150 271.2970 15.08846770 52375,6917.86,95.437,540.5,538.949,0.0
51776.0,STARLINK-3608,PAYLOAD,2023-02-07 04:17:43,15.08847377,0.0001061,53.2162,356.2308,91.6988,268.4126,0.0001271,1.736e-05,0.0,0 STARLINK-3608,1 51776U 22017J   23038.17897829  .00001736  00000-0  12710-3 0  9996,2 51776  53.2162 356.2308 0001061  91.6988 268.4126 15.08847377 53998,6917.858,95.437,540.457,538.989,0.0
51776.0,STARLINK-3608,PAYLOAD,2023-02-08 05:43:53,15.08851759,0.0001311,53.2187,351.477,102.9347,257.1792,0.00011183,1.493e-05,0.0,0 STARLINK-3608,1 51776U 22017J   23039.23881593  .00001493  00000-0  11183-3 0  9998,2 51776  53.2187 351.4770 0001311 102.9347 257.1792 15.08851759 54150,6917.844,95.437,540.616,538.803,0.0
51776.0,STARLINK-3608,PAYLOAD,2023-02-09 05:34:41,15.0884357,0.0001289,53.2173,347.0087,75.4498,284.6637,-4.2642e-05,-9.67e-06,0.0,0 STARLINK-3608,1 51776U 22017J   23040.23242691 -.00000967  00000-0 -42642-4 0  9992,2 51776  53.2173 347.0087 0001289  75.4498 284.6637 15.08843570 54304,6917.869,95.437,540.626,538.843,0.0
51776.0,STARLINK-3608,PAYLOAD,2023-02-10 02:14:43,15.08838581,0.0001434,53.2183,343.1431,82.0099,278.1056,-9.7552e-05,-1.84e-05,0.0,0 STARLINK-3608,1 51776U 22017J   23041.09355634 -.00001840  00000-0 -97552-4 0  9990,2 51776  53.2183 343.1431 0001434  82.0099 278.1056 15.08838581 52945,6917.885,95.438,540.742,538.758,0.0
51776.0,STARLINK-3608,PAYLOAD,2023-02-10 03:50:06,15.08840654,0.0001342,53.217,342.8463,102.3338,257.7805,-6.8651e-05,-1.38e-05,0.0,0 STARLINK-3608,1 51776U 22017J   23041.15979326 -.00001380  00000-0 -68651-4 0  9994,2 51776  53.2170 342.8463 0001342 102.3338 257.7805 15.08840654 54448,6917.878,95.438,540.672,538.815,0.0
51776.0,STARLINK-3608,PAYLOAD,2023-02-11 02:05:28,15.08848419,9.06e-05,53.2164,338.6824,100.7352,259.3742,4.2239e-05,3.85e-06,0.0,0 STARLINK-3608,1 51776U 22017J   23042.08714038  .00000385  00000-0  42239-4 0  9990,2 51776  53.2164 338.6824 0000906 100.7352 259.3742 15.08848419 54588,6917.855,95.437,540.346,539.093,0.0
51776.0,STARLINK-3608,PAYLOAD,2023-02-11 19:34:44,15.08846086,0.0001237,53.2166,335.4129,82.9278,277.1855,-0.00012127,-2.218e-05,0.0,0 STARLINK-3608,1 51776U 22017J   23042.81579191 -.00002218  00000-0 -12127-3 0  9991,2 51776  53.2166 335.4129 0001237  82.9278 277.1855 15.08846086 54692,6917.862,95.437,540.583,538.871,0.0
51776.0,STARLINK-3608,PAYLOAD,2023-02-12 05:07:03,15.08845784,0.0001294,53.2164,333.6287,84.9904,275.1236,-0.00010585,-1.972e-05,0.0,0 STARLINK-3608,1 51776U 22017J   23043.21322971 -.00001972  00000-0 -10585-3 0  9990,2 51776  53.2164 333.6287 0001294  84.9904 275.1236 15.08845784 53263,6917.863,95.437,540.623,538.833,0.0
51776.0,STARLINK-3608,PAYLOAD,2023-02-13 04:57:49,15.08858032,0.0001252,53.2178,329.17,86.0711,274.0425,-6.2482e-05,-1.283e-05,0.0,0 STARLINK-3608,1 51776U 22017J   23044.20682232 -.00001283  00000-0 -62482-4 0  9998,2 51776  53.2178 329.1700 0001252  86.0711 274.0425 15.08858032 54901,6917.825,95.436,540.556,538.824,0.0
51776.0,STARLINK-3608,PAYLOAD,2023-02-13 11:19:23,15.08840705,0.0001692,53.2178,327.9803,88.9524,271.1662,-0.00018442,-3.222e-05,0.0,0 STARLINK-3608,1 51776U 22017J   23044.47179600 -.00003222  00000-0 -18442-3 0  9998,2 51776  53.2178 327.9803 0001692  88.9524 271.1662 15.08840705 54945,6917.878,95.438,540.914,538.573,0.0
51776.0,STARLINK-3608,PAYLOAD,2023-02-14 01:37:52,15.08827061,0.0001333,53.2152,325.3068,47.1679,312.9425,1.6165e-06,-2.62e-06,0.0,0 STARLINK-3608,1 51776U 22017J   23045.06796350 -.00000262  00000-0  16165-5 0  9993,2 51776  53.2152 325.3068 0001333  47.1679 312.9425 15.08827061 55034,6917.92,95.438,540.707,538.863,0.0
51776.0,STARLINK-3608,PAYLOAD,2023-02-15 01:28:37,15.08854371,0.0001202,53.216,320.8402,51.5321,308.5779,0.00010806,1.433e-05,0.0,0 STARLINK-3608,1 51776U 22017J   23046.06155008  .00001433  00000-0  10806-3 0  9997,2 51776  53.2160 320.8402 0001202  51.5321 308.5779 15.08854371 55186,6917.836,95.437,540.533,538.87,0.0
51776.0,STARLINK-3608,PAYLOAD,2023-02-15 11:00:56,15.08851987,0.0001117,53.2155,319.0593,56.8638,303.2461,1.972e-05,2.6e-07,0.0,0 STARLINK-3608,1 51776U 22017J   23046.45899281  .00000026  00000-0  19720-4 0  9990,2 51776  53.2155 319.0593 0001117  56.8638 303.2461 15.08851987 55242,6917.844,95.437,540.481,538.936,0.0
51776.0,STARLINK-3608,PAYLOAD,2023-02-15 22:08:39,15.0883555,0.0001442,53.2148,316.9791,56.2697,303.8432,9.4025e-05,1.209e-05,0.0,0 STARLINK-3608,1 51776U 22017J   23046.92268078  .00001209  00000-0  94025-4 0  9991,2 51776  53.2148 316.9791 0001442  56.2697 303.8432 15.08835550 53824,6917.894,95.438,540.757,538.761,0.0
51776.0,STARLINK-3608,PAYLOAD,2023-02-15 23:44:02,15.08848204,0.0001662,53.2167,316.6805,59.6351,300.4805,-4.0593e-05,-9.34e-06,0.0,0 STARLINK-3608,1 51776U 22017J   23046.98891847 -.00000934  00000-0 -40593-4 0  9990,2 51776  53.2167 316.6805 0001662  59.6351 300.4805 15.08848204 55320,6917.855,95.437,540.87,538.571,0.0
51776.0,STARLINK-3608,PAYLOAD,2023-02-16 01:19:23,15.0886137,8.98e-05,53.2147,316.383,69.4743,290.6346,0.00023748,3.496e-05,0.0,0 STARLINK-3608,1 51776U 22017J   23047.05513841  .00003496  00000-0  23748-3 0  9990,2 51776  53.2147 316.3830 0000898  69.4743 290.6346 15.08861370 55337,6917.815,95.436,540.301,539.059,0.0
51776.0,STARLINK-3608,PAYLOAD,2023-02-16 10:51:44,15.08837755,0.0001192,53.2148,314.5991,62.1379,297.9733,2.8819e-05,1.71e-06,0.0,0 STARLINK-3608,1 51776U 22017J   23047.45260007  .00000171  00000-0  28819-4 0  9999,2 51776  53.2148 314.5991 0001192  62.1379 297.9733 15.08837755 55395,6917.887,95.438,540.577,538.928,0.0
51776.0,STARLINK-3608,PAYLOAD,2023-02-16 21:59:27,15.08833347,0.0001432,53.2153,312.5182,71.7921,288.3227,-0.0001391,-2.501e-05,0.0,0 STARLINK-3608,1 51776U 22017J   23047.91629233 -.00002501  00000-0 -13910-3 0  9996,2 51776  53.2153 312.5182 0001432  71.7921 288.3227 15.08833347 53974,6917.901,95.438,540.756,538.775,0.0
